EUTELSAT 21B            
1 38992U 12062B   25343.56978698  .00000132  00000+0  00000+0 0  9991
2 38992   0.0662 358.9230 0003268 268.5453  37.8092  1.00271080 47929
EUTELSAT 70B            
1 39020U 12069A   25343.74906090 -.00000041  00000+0  00000+0 0  9998
2 39020   0.0642 339.1745 0004372 264.4602 175.2810  1.00271592 47619
EUTELSAT 117 WEST A     
1 39122U 13012A   25343.61372726 -.00000010  00000+0  00000+0 0  9995
2 39122   0.0128 351.3101 0003063 269.3447 282.0860  1.00270774 46533
EUTELSAT 7B             
1 39163U 13022A   25343.56692698  .00000050  00000+0  00000+0 0  9991
2 39163   0.0707  14.9491 0004563 299.7285 334.9590  1.00271707 46059
EXPRESS-AT1             
1 39612U 14010A   25343.86197932  .00000082  00000+0  00000+0 0  9997
2 39612   0.0122 288.6927 0000559 275.4827 240.9771  1.00270539 42928
EXPRESS-AT2             
1 39613U 14010B   25343.80729236 -.00000278  00000+0  00000+0 0  9998
2 39613   0.0192 316.2201 0001561 330.3487 222.7154  1.00272305 42607
EUTELSAT 3B             
1 39773U 14030A   25343.56614697  .00000022  00000+0  00000+0 0  9990
2 39773   0.0629 341.9539 0004739 246.3265  57.1942  1.00271476 42162
EUTELSAT 115 WEST B     
1 40425U 15010B   25343.41896340 -.00000022  00000+0  00000+0 0  9997
2 40425   0.0086 153.7590 0000283 289.3308  31.2487  1.00267856 39492
